SWAS                    
1 25560U 98071A   26068.53487068  .00004636  00000+0  29986-3 0  9991
2 25560  69.8952 124.3662 0004099  14.3215 345.8065 15.08888192482231
STARLINK-4789           
1 53868U 22114BC  26068.82093655 -.00000208  00000+0  50272-5 0  9991
2 53868  53.2161 263.4434 0001360  97.8997 262.2150 15.08837621193412
